NORAD_CAT_ID,OBJECT_NAME,OBJECT_TYPE,EPOCH,MEAN_MOTION,ECCENTRICITY,INCLINATION,RA_OF_ASC_NODE,ARG_OF_PERICENTER,MEAN_ANOMALY,BSTAR,MEAN_MOTION_DOT,MEAN_MOTION_DDOT,TLE_LINE0,TLE_LINE1,TLE_LINE2,SEMIMAJOR_AXIS,PERIOD,APOGEE,PERIGEE,DECAYED
52348.0,STARLINK-3829,PAYLOAD,2024-01-04 19:39:30,15.08840506,0.0001369,53.2161,167.4351,81.7768,278.338,9.0592e-05,1.154e-05,0.0,0 STARLINK-3829,1 52348U 22045T   24004.81910832  .00001154  00000-0  90592-4 0  9997,2 52348  53.2161 167.4351 0001369  81.7768 278.3380 15.08840506 95782,6917.879,95.438,540.691,538.797,0.0
52348.0,STARLINK-3829,PAYLOAD,2024-01-05 14:44:08,15.08838895,0.0001347,53.2167,163.8651,84.7878,275.3267,8.2999e-05,1.033e-05,0.0,0 STARLINK-3829,1 52348U 22045T   24005.61399157  .00001033  00000-0  82999-4 0  9995,2 52348  53.2167 163.8651 0001347  84.7878 275.3267 15.08838895 95905,6917.884,95.438,540.681,538.817,0.0
52348.0,STARLINK-3829,PAYLOAD,2024-01-05 17:54:54,15.08841888,0.0001361,53.2167,163.2705,83.6275,276.4872,0.00010596,1.399e-05,0.0,0 STARLINK-3829,1 52348U 22045T   24005.74646915  .00001399  00000-0  10596-3 0  9994,2 52348  53.2167 163.2705 0001361  83.6275 276.4872 15.08841888 95926,6917.875,95.437,540.681,538.798,0.0
52348.0,STARLINK-3829,PAYLOAD,2024-01-06 19:21:04,15.0888509,0.0001271,53.2172,158.5108,93.9448,266.169,-0.00049336,-8.141e-05,0.0,0 STARLINK-3829,1 52348U 22045T   24006.80629793 -.00008141  00000-0 -49336-3 0  9995,2 52348  53.2172 158.5108 0001271  93.9448 266.1690 15.08885090 96087,6917.743,95.435,540.487,538.728,0.0
52348.0,STARLINK-3829,PAYLOAD,2024-01-07 09:39:33,15.08837633,0.0001307,53.2165,155.8365,98.7225,261.3915,-2.1368e-05,-6.28e-06,0.0,0 STARLINK-3829,1 52348U 22045T   24007.40247346 -.00000628  00000-0 -21368-4 0  9990,2 52348  53.2165 155.8365 0001307  98.7225 261.3915 15.08837633 96177,6917.888,95.438,540.657,538.848,0.0
52348.0,STARLINK-3829,PAYLOAD,2024-01-07 14:25:42,15.08842703,0.0001283,53.2163,154.9456,93.7952,266.3187,-1.0503e-05,-4.55e-06,0.0,0 STARLINK-3829,1 52348U 22045T   24007.60119034 -.00000455  00000-0 -10503-4 0  9991,2 52348  53.2163 154.9456 0001283  93.7952 266.3187 15.08842703 96205,6917.872,95.437,540.625,538.85,0.0
52348.0,STARLINK-3829,PAYLOAD,2024-01-07 16:01:05,15.08842098,0.0001285,53.2162,154.6475,106.178,253.9354,1.222e-05,-9.3e-07,0.0,0 STARLINK-3829,1 52348U 22045T   24007.66742884 -.00000093  00000-0  12220-4 0  9997,2 52348  53.2162 154.6475 0001285 106.1780 253.9354 15.08842098 96218,6917.874,95.437,540.628,538.85,0.0
52348.0,STARLINK-3829,PAYLOAD,2024-01-08 14:16:29,15.08843784,0.00013,53.2163,150.4847,95.3124,264.8017,2.8396e-05,1.64e-06,0.0,0 STARLINK-3829,1 52348U 22045T   24008.59478691  .00000164  00000-0  28396-4 0  9991,2 52348  53.2163 150.4847 0001300  95.3124 264.8017 15.08843784 96350,6917.869,95.437,540.633,538.834,0.0
52348.0,STARLINK-3829,PAYLOAD,2024-01-08 15:51:52,15.08846429,0.0001296,53.2164,150.1874,92.8522,267.2618,4.9267e-05,4.96e-06,0.0,0 STARLINK-3829,1 52348U 22045T   24008.66102454  .00000496  00000-0  49267-4 0  9998,2 52348  53.2164 150.1874 0001296  92.8522 267.2618 15.08846429 96360,6917.861,95.437,540.622,538.829,0.0
52348.0,STARLINK-3829,PAYLOAD,2024-01-09 12:31:53,15.08840484,0.0001342,53.2166,146.3233,70.3276,289.7861,3.4518e-05,2.61e-06,0.0,0 STARLINK-3829,1 52348U 22045T   24009.52214945  .00000261  00000-0  34518-4 0  9996,2 52348  53.2166 146.3233 0001342  70.3276 289.7861 15.08840484 96495,6917.879,95.438,540.672,538.816,0.0
52348.0,STARLINK-3829,PAYLOAD,2024-01-09 14:07:16,15.08841264,0.000137,53.2166,146.0261,67.4963,292.6174,3.9725e-05,3.44e-06,0.0,0 STARLINK-3829,1 52348U 22045T   24009.58838890  .00000344  00000-0  39725-4 0  9990,2 52348  53.2166 146.0261 0001370  67.4963 292.6174 15.08841264 96503,6917.877,95.437,540.689,538.794,0.0
52348.0,STARLINK-3829,PAYLOAD,2024-01-09 15:42:39,15.08843267,0.0001352,53.2165,145.7283,72.4259,287.6881,5.4329e-05,5.77e-06,0.0,0 STARLINK-3829,1 52348U 22045T   24009.65462688  .00000577  00000-0  54329-4 0  9991,2 52348  53.2165 145.7283 0001352  72.4259 287.6881 15.08843267 96511,6917.87,95.437,540.671,538.8,0.0
52348.0,STARLINK-3829,PAYLOAD,2024-01-10 09:11:54,15.08837269,0.0001395,53.2159,142.4582,72.179,287.9355,-1.5842e-05,-5.4e-06,0.0,0 STARLINK-3829,1 52348U 22045T   24010.38327343 -.00000540  00000-0 -15842-4 0  9990,2 52348  53.2159 142.4582 0001395  72.1790 287.9355 15.08837269 96620,6917.889,95.438,540.719,538.789,0.0
52348.0,STARLINK-3829,PAYLOAD,2024-01-10 13:58:04,15.08826278,0.0001429,53.2159,141.5663,73.7437,286.3713,0.0001753,2.502e-05,0.0,0 STARLINK-3829,1 52348U 22045T   24010.58199329  .00002502  00000-0  17530-3 0  9996,2 52348  53.2159 141.5663 0001429  73.7437 286.3713 15.08826278 96655,6917.922,95.438,540.776,538.799,0.0
52348.0,STARLINK-3829,PAYLOAD,2024-01-11 12:13:27,15.0884177,0.0001295,53.216,137.4019,88.7941,271.32,5.1891e-05,5.38e-06,0.0,0 STARLINK-3829,1 52348U 22045T   24011.50934761  .00000538  00000-0  51891-4 0  9992,2 52348  53.2160 137.4019 0001295  88.7941 271.3200 15.08841770 96797,6917.875,95.437,540.636,538.844,0.0
52348.0,STARLINK-3829,PAYLOAD,2024-01-11 13:48:50,15.0884299,0.000131,53.216,137.1047,87.6577,272.4565,6.2911e-05,7.14e-06,0.0,0 STARLINK-3829,1 52348U 22045T   24011.57558664  .00000714  00000-0  62911-4 0  9994,2 52348  53.2160 137.1047 0001310  87.6577 272.4565 15.08842990 96809,6917.871,95.437,540.642,538.83,0.0
52348.0,STARLINK-3829,PAYLOAD,2024-01-12 12:04:15,15.08831767,0.0001461,53.2165,132.9434,64.7679,295.3464,-2.0733e-05,-6.18e-06,0.0,0 STARLINK-3829,1 52348U 22045T   24012.50296056 -.00000618  00000-0 -20733-4 0  9993,2 52348  53.2165 132.9434 0001461  64.7679 295.3464 15.08831767 96940,6917.906,95.438,540.781,538.76,0.0
52348.0,STARLINK-3829,PAYLOAD,2024-01-12 13:39:38,15.08833912,0.0001471,53.2165,132.6462,66.0175,294.0971,-4.4721e-06,-3.59e-06,0.0,0 STARLINK-3829,1 52348U 22045T   24012.56919896 -.00000359  00000-0 -44721-5 0  9999,2 52348  53.2165 132.6462 0001471  66.0175 294.0971 15.08833912 96959,6917.899,95.438,540.782,538.746,0.0
52348.0,STARLINK-3829,PAYLOAD,2024-01-12 18:25:47,15.08849647,0.0001244,53.2168,131.7507,88.8067,271.3068,-9.8605e-05,-1.857e-05,0.0,0 STARLINK-3829,1 52348U 22045T   24012.76790996 -.00001857  00000-0 -98605-4 0  9992,2 52348  53.2168 131.7507 0001244  88.8067 271.3068 15.08849647 96982,6917.851,95.437,540.576,538.855,0.0
52348.0,STARLINK-3829,PAYLOAD,2024-01-13 11:55:02,15.08834666,0.0001363,53.2169,128.4837,61.2102,298.9027,1.4643e-05,-5.5e-07,0.0,0 STARLINK-3829,1 52348U 22045T   24013.49655861 -.00000055  00000-0  14643-4 0  9992,2 52348  53.2169 128.4837 0001363  61.2102 298.9027 15.08834666 97097,6917.897,95.438,540.705,538.819,0.0
52348.0,STARLINK-3829,PAYLOAD,2024-01-13 13:30:25,15.08845819,0.0001679,53.2175,128.1845,68.0958,292.0213,8.8691e-05,1.124e-05,0.0,0 STARLINK-3829,1 52348U 22045T   24013.56279042  .00001124  00000-0  88691-4 0  9994,2 52348  53.2175 128.1845 0001679  68.0958 292.0213 15.08845819 97100,6917.863,95.437,540.889,538.566,0.0
52348.0,STARLINK-3829,PAYLOAD,2024-01-13 16:41:11,15.08845925,0.0001464,53.2158,127.5908,81.2123,278.9035,0.00012266,1.665e-05,0.0,0 STARLINK-3829,1 52348U 22045T   24013.69526839  .00001665  00000-0  12266-3 0  9991,2 52348  53.2158 127.5908 0001464  81.2123 278.9035 15.08845925 97122,6917.862,95.437,540.74,538.715,0.0
52348.0,STARLINK-3829,PAYLOAD,2024-01-14 13:21:12,15.08839241,0.0001404,53.2163,123.7252,74.7158,285.3989,7.6779e-05,9.34e-06,0.0,0 STARLINK-3829,1 52348U 22045T   24014.55639621  .00000934  00000-0  76779-4 0  9999,2 52348  53.2163 123.7252 0001404  74.7158 285.3989 15.08839241 97255,6917.883,95.438,540.719,538.776,0.0
52348.0,STARLINK-3829,PAYLOAD,2024-01-14 14:56:35,15.08846362,0.0001397,53.2167,123.426,85.0197,275.0955,0.00011387,1.525e-05,0.0,0 STARLINK-3829,1 52348U 22045T   24014.62263011  .00001525  00000-0  11387-3 0  9993,2 52348  53.2167 123.4260 0001397  85.0197 275.0955 15.08846362 97266,6917.861,95.437,540.692,538.76,0.0
52348.0,STARLINK-3829,PAYLOAD,2024-01-15 13:11:59,15.08850861,0.00014,53.216,119.2644,79.5218,280.5932,4.4516e-05,4.21e-06,0.0,0 STARLINK-3829,1 52348U 22045T   24015.54998844  .00000421  00000-0  44516-4 0  9999,2 52348  53.2160 119.2644 0001400  79.5218 280.5932 15.08850861 97406,6917.847,95.437,540.681,538.744,0.0
52348.0,STARLINK-3829,PAYLOAD,2024-01-16 11:27:22,15.08857646,0.0001499,53.2176,115.0985,83.2442,276.872,8.2034e-05,1.018e-05,0.0,0 STARLINK-3829,1 52348U 22045T   24016.47734480  .00001018  00000-0  82034-4 0  9996,2 52348  53.2176 115.0985 0001499  83.2442 276.8720 15.08857646 97540,6917.826,95.436,540.728,538.654,0.0
52348.0,STARLINK-3829,PAYLOAD,2024-01-16 13:02:45,15.08856609,0.000145,53.2169,114.8018,73.1747,286.9404,0.00011154,1.488e-05,0.0,0 STARLINK-3829,1 52348U 22045T   24016.54358439  .00001488  00000-0  11154-3 0  9995,2 52348  53.2169 114.8018 0001450  73.1747 286.9404 15.08856609 97559,6917.83,95.437,540.698,538.692,0.0
52348.0,STARLINK-3829,PAYLOAD,2024-01-16 14:38:08,15.08861358,0.0001453,53.2178,114.5031,79.974,280.1416,0.00010409,1.37e-05,0.0,0 STARLINK-3829,1 52348U 22045T   24016.60982041  .00001370  00000-0  10409-3 0  9996,2 52348  53.2178 114.5031 0001453  79.9740 280.1416 15.08861358 97568,6917.815,95.436,540.685,538.675,0.0
52348.0,STARLINK-3829,PAYLOAD,2024-01-17 11:18:10,15.08839116,0.0001659,53.217,110.6351,123.921,236.194,-9.4673e-05,-1.794e-05,0.0,0 STARLINK-3829,1 52348U 22045T   24017.47095993 -.00001794  00000-0 -94673-4 0  9991,2 52348  53.2170 110.6351 0001659 123.9210 236.1940 15.08839116 97696,6917.883,95.438,540.896,538.6,0.0
52348.0,STARLINK-3829,PAYLOAD,2024-01-17 12:53:34,15.0883836,0.0001349,53.2172,110.3409,86.5504,273.5643,-8.2547e-05,-1.601e-05,0.0,0 STARLINK-3829,1 52348U 22045T   24017.53720047 -.00001601  00000-0 -82547-4 0  9997,2 52348  53.2172 110.3409 0001349  86.5504 273.5643 15.08838360 97702,6917.885,95.438,540.684,538.817,0.0
